OBJECT_NAME,OBJECT_ID,EPOCH,MEAN_MOTION,ECCENTRICITY,INCLINATION,RA_OF_ASC_NODE,ARG_OF_PERICENTER,MEAN_ANOMALY,EPHEMERIS_TYPE,CLASSIFICATION_TYPE,NORAD_CAT_ID,ELEMENT_SET_NO,REV_AT_EPOCH,BSTAR,MEAN_MOTION_DOT,MEAN_MOTION_DDOT
SAUDISAT 1C (SO-50),2002-058C,2026-06-20T04:33:14.048352,14.83052340,.00751612,64.5514,119.6951,261.9163,97.3411,0,U,27607,999,26490,.10356315E-3,.729E-5,0
SAUDISAT 2,2004-025F,2026-06-19T23:34:56.134560,14.56685199,.0023505,98.5507,171.0368,289.2174,70.6480,0,U,28371,999,16615,.49656119E-4,.173E-5,0
SAUDISAT 3,2007-012B,2026-06-19T20:13:35.416992,14.71426873,.00137974,98.1456,121.2452,214.8497,145.1807,0,U,31118,999,2813,.38780514E-4,.189E-5,0
PISAT,2016-059B,2026-06-19T22:28:55.298496,14.68987180,.00286022,97.8178,171.2714,193.8263,166.2163,0,U,41784,999,52014,.11424271E-3,.626E-5,0
FLYING LAPTOP,2017-042G,2026-06-20T07:38:31.381728,15.01161888,.00197262,97.4705,326.7303,111.7060,248.6267,0,U,42831,999,48692,.19892839E-3,.2502E-4,0
SALSAT,2020-068K,2026-06-19T22:59:40.174368,15.29832652,.00078926,97.8854,174.1914,296.5001,63.5428,0,U,46495,999,31578,.22355472E-3,.6379E-4,0
